$$SOE
2460154.500000000, A.D. 2023-Jul-29 00:00:00.0000, 9.407202870098884E+08, 8.835310777172358E+09, -1.337890383179371E+09,
2460161.500000000, A.D. 2023-Aug-05 00:00:00.0000, 9.386312334430918E+08, 8.836399083948198E+09, -1.337557535382151E+09,
2460168.500000000, A.D. 2023-Aug-12 00:00:00.0000, 9.365420305089413E+08, 8.837486771258738E+09, -1.337224595519006E+09,
2460175.500000000, A.D. 2023-Aug-19 00:00:00.0000, 9.344526763709451E+08, 8.838573836734781E+09, -1.336891563516528E+09,
2460182.500000000, A.D. 2023-Aug-26 00:00:00.0000, 9.323631694981050E+08, 8.839660277608490E+09, -1.336558439325405E+09,
2460189.500000000, A.D. 2023-Sep-02 00:00:00.0000, 9.302735086426611E+08, 8.840746090732069E+09, -1.336225222919008E+09,
2460196.500000000, A.D. 2023-Sep-09 00:00:00.0000, 9.281836928314638E+08, 8.841831272483925E+09, -1.335891914303339E+09,
2460203.500000000, A.D. 2023-Sep-16 00:00:00.0000, 9.260937215393966E+08, 8.842915818504259E+09, -1.335558513558449E+09,
2460210.500000000, A.D. 2023-Sep-23 00:00:00.0000, 9.240035954612583E+08, 8.843999723546938E+09, -1.335225020926064E+09,
2460217.500000000, A.D. 2023-Sep-30 00:00:00.0000, 9.219133175425367E+08, 8.845082982638306E+09, -1.334891436814825E+09,
2460224.500000000, A.D. 2023-Oct-07 00:00:00.0000, 9.198228919153445E+08, 8.846165593000151E+09, -1.334557761551502E+09,
2460231.500000000, A.D. 2023-Oct-14 00:00:00.0000, 9.177323217794019E+08, 8.847247553423618E+09, -1.334223995244146E+09,
2460238.500000000, A.D. 2023-Oct-21 00:00:00.0000, 9.156416094566793E+08, 8.848328862696852E+09, -1.333890137922164E+09,
2460245.500000000, A.D. 2023-Oct-28 00:00:00.0000, 9.135507571953384E+08, 8.849409519346409E+09, -1.333556189637723E+09,
2460252.500000000, A.D. 2023-Nov-04 00:00:00.0000, 9.114597674729446E+08, 8.850489521922152E+09, -1.333222150476550E+09,
2460259.500000000, A.D. 2023-Nov-11 00:00:00.0000, 9.093686429765122E+08, 8.851568869225609E+09, -1.332888020543137E+09,
2460266.500000000, A.D. 2023-Nov-18 00:00:00.0000, 9.072773864788840E+08, 8.852647560417652E+09, -1.332553799945554E+09,
2460273.500000000, A.D. 2023-Nov-25 00:00:00.0000, 9.051860006842697E+08, 8.853725595027924E+09, -1.332219488784399E+09,
2460280.500000000, A.D. 2023-Dec-02 00:00:00.0000, 9.030944880711312E+08, 8.854802972854876E+09, -1.331885087149269E+09,
2460287.500000000, A.D. 2023-Dec-09 00:00:00.0000, 9.010028508102378E+08, 8.855879693697519E+09, -1.331550595134573E+09,
2460294.500000000, A.D. 2023-Dec-16 00:00:00.0000, 8.989110910454377E+08, 8.856955756931393E+09, -1.331216012899978E+09,
2460301.500000000, A.D. 2023-Dec-23 00:00:00.0000, 8.968192118856019E+08, 8.858031161616274E+09, -1.330881340751342E+09,
2460308.500000000, A.D. 2023-Dec-30 00:00:00.0000, 8.947272177675164E+08, 8.859105908184813E+09, -1.330546579033555E+09,
2460315.500000000, A.D. 2024-Jan-06 00:00:00.0000, 8.926351124172733E+08, 8.860179999351425E+09, -1.330211727865805E+09,
2460322.500000000, A.D. 2024-Jan-13 00:00:00.0000, 8.905428975829045E+08, 8.861253438434507E+09, -1.329876787158187E+09,
2460329.500000000, A.D. 2024-Jan-20 00:00:00.0000, 8.884505737618154E+08, 8.862326228176577E+09, -1.329541756770039E+09,
2460336.500000000, A.D. 2024-Jan-27 00:00:00.0000, 8.863581408942809E+08, 8.863398370714525E+09, -1.329206636570888E+09,
2460343.500000000, A.D. 2024-Feb-03 00:00:00.0000, 8.842655985946314E+08, 8.864469867751337E+09, -1.328871426442451E+09,
2460350.500000000, A.D. 2024-Feb-10 00:00:00.0000, 8.821729461974925E+08, 8.865540720638235E+09, -1.328536126271171E+09,
2460357.500000000, A.D. 2024-Feb-17 00:00:00.0000, 8.800801827577783E+08, 8.866610930375090E+09, -1.328200735943505E+09,
2460364.500000000, A.D. 2024-Feb-24 00:00:00.0000, 8.779873070403743E+08, 8.867680497543922E+09, -1.327865255346208E+09,
2460371.500000000, A.D. 2024-Mar-02 00:00:00.0000, 8.758943175288600E+08, 8.868749422143009E+09, -1.327529684377085E+09,
2460378.500000000, A.D. 2024-Mar-09 00:00:00.0000, 8.738012125920779E+08, 8.869817703258665E+09, -1.327194022984144E+09,
2460385.500000000, A.D. 2024-Mar-16 00:00:00.0000, 8.717079912038540E+08, 8.870885338772034E+09, -1.326858271253338E+09,
2460392.500000000, A.D. 2024-Mar-23 00:00:00.0000, 8.696146541122930E+08, 8.871952326209887E+09, -1.326522429444821E+09,
2460399.500000000, A.D. 2024-Mar-30 00:00:00.0000, 8.675212032175043E+08, 8.873018664712675E+09, -1.326186497774344E+09,
2460406.500000000, A.D. 2024-Apr-06 00:00:00.0000, 8.654276394137888E+08, 8.874084354752172E+09, -1.325850476238496E+09,
2460413.500000000, A.D. 2024-Apr-13 00:00:00.0000, 8.633339624474216E+08, 8.875149396435186E+09, -1.325514364741151E+09,
2460420.500000000, A.D. 2024-Apr-20 00:00:00.0000, 8.612401718378795E+08, 8.876213789069960E+09, -1.325178163215045E+09,
2460427.500000000, A.D. 2024-Apr-27 00:00:00.0000, 8.591462673454987E+08, 8.877277531433884E+09, -1.324841871645151E+09,
2460434.500000000, A.D. 2024-May-04 00:00:00.0000, 8.570522490734723E+08, 8.878340622039249E+09, -1.324505490059372E+09,
2460441.500000000, A.D. 2024-May-11 00:00:00.0000, 8.549581174425352E+08, 8.879403059295366E+09, -1.324169018516598E+09,
2460448.500000000, A.D. 2024-May-18 00:00:00.0000, 8.528638731203165E+08, 8.880464841588997E+09, -1.323832457097760E+09,
2460455.500000000, A.D. 2024-May-25 00:00:00.0000, 8.507695169300814E+08, 8.881525967276249E+09, -1.323495805902542E+09,
2460462.500000000, A.D. 2024-Jun-01 00:00:00.0000, 8.486750497987088E+08, 8.882586434528872E+09, -1.323159065061723E+09,
2460469.500000000, A.D. 2024-Jun-08 00:00:00.0000, 8.465804729902675E+08, 8.883646241012272E+09, -1.322822234789372E+09,
2460476.500000000, A.D. 2024-Jun-15 00:00:00.0000, 8.444857890247059E+08, 8.884705383940643E+09, -1.322485315466726E+09,
2460483.500000000, A.D. 2024-Jun-22 00:00:00.0000, 8.423910022764452E+08, 8.885763861684563E+09, -1.322148307569251E+09,
2460490.500000000, A.D. 2024-Jun-29 00:00:00.0000, 8.402961171312425E+08, 8.886821675110472E+09, -1.321811211390836E+09,
2460497.500000000, A.D. 2024-Jul-06 00:00:00.0000, 8.382011363463255E+08, 8.887878826181034E+09, -1.321474027009417E+09,
2460504.500000000, A.D. 2024-Jul-13 00:00:00.0000, 8.361060615630535E+08, 8.888935316640610E+09, -1.321136754441916E+09,
2460511.500000000, A.D. 2024-Jul-20 00:00:00.0000, 8.340108939864479E+08, 8.889991147934549E+09, -1.320799393712373E+09,
2460518.500000000, A.D. 2024-Jul-27 00:00:00.0000, 8.319156345755984E+08, 8.891046321402922E+09, -1.320461944851496E+09,
2460525.500000000, A.D. 2024-Aug-03 00:00:00.0000, 8.298202840178747E+08, 8.892100838373808E+09, -1.320124407883399E+09,
2460532.500000000, A.D. 2024-Aug-10 00:00:00.0000, 8.277248426527221E+08, 8.893154700151899E+09, -1.319786782815214E+09,
2460539.500000000, A.D. 2024-Aug-17 00:00:00.0000, 8.256293103923637E+08, 8.894207907924421E+09, -1.319449069632349E+09,
2460546.500000000, A.D. 2024-Aug-24 00:00:00.0000, 8.235336866672522E+08, 8.895260462562489E+09, -1.319111268304000E+09,
2460553.500000000, A.D. 2024-Aug-31 00:00:00.0000, 8.214379705118880E+08, 8.896312364256758E+09, -1.318773378814805E+09,
2460560.500000000, A.D. 2024-Sep-07 00:00:00.0000, 8.193421611565046E+08, 8.897363612114134E+09, -1.318435401246095E+09,
2460567.500000000, A.D. 2024-Sep-14 00:00:00.0000, 8.172462592098652E+08, 8.898414204711689E+09, -1.318097335833423E+09,
2460574.500000000, A.D. 2024-Sep-21 00:00:00.0000, 8.151502664043449E+08, 8.899464142020599E+09, -1.317759182780795E+09,
2460581.500000000, A.D. 2024-Sep-28 00:00:00.0000, 8.130541834157994E+08, 8.900513425472656E+09, -1.317420942050813E+09,
2460588.500000000, A.D. 2024-Oct-05 00:00:00.0000, 8.109580094279230E+08, 8.901562056171133E+09, -1.317082613467369E+09,
2460595.500000000, A.D. 2024-Oct-12 00:00:00.0000, 8.088617430804763E+08, 8.902610034226240E+09, -1.316744196854317E+09,
2460602.500000000, A.D. 2024-Oct-19 00:00:00.0000, 8.067653830504584E+08, 8.903657358944525E+09, -1.316405692071758E+09,
2460609.500000000, A.D. 2024-Oct-26 00:00:00.0000, 8.046689282338873E+08, 8.904704029070965E+09, -1.316067099012454E+09,
2460616.500000000, A.D. 2024-Nov-02 00:00:00.0000, 8.025723777856210E+08, 8.905750042935642E+09, -1.315728417594089E+09,
2460623.500000000, A.D. 2024-Nov-09 00:00:00.0000, 8.004757311139580E+08, 8.906795398525980E+09, -1.315389647754551E+09,
2460630.500000000, A.D. 2024-Nov-16 00:00:00.0000, 7.983789878560694E+08, 8.907840093485065E+09, -1.315050789452482E+09,
2460637.500000000, A.D. 2024-Nov-23 00:00:00.0000, 7.962821478813462E+08, 8.908884124986479E+09, -1.314711842681474E+09,
2460644.500000000, A.D. 2024-Nov-30 00:00:00.0000, 7.941852115310899E+08, 8.909927489443214E+09, -1.314372807520388E+09,
2460651.500000000, A.D. 2024-Dec-07 00:00:00.0000, 7.920881805140940E+08, 8.910970182471569E+09, -1.314033684223787E+09,
2460658.500000000, A.D. 2024-Dec-14 00:00:00.0000, 7.899910587695833E+08, 8.912012200334084E+09, -1.313694473189191E+09,
2460665.500000000, A.D. 2024-Dec-21 00:00:00.0000, 7.878938509790190E+08, 8.913053541621012E+09, -1.313355174689744E+09,
2460672.500000000, A.D. 2024-Dec-28 00:00:00.0000, 7.857965606993017E+08, 8.914094206202959E+09, -1.313015788795502E+09,
2460679.500000000, A.D. 2025-Jan-04 00:00:00.0000, 7.836991907146480E+08, 8.915134193830996E+09, -1.312676315527210E+09,
2460686.500000000, A.D. 2025-Jan-11 00:00:00.0000, 7.816017437859826E+08, 8.916173504044140E+09, -1.312336754939616E+09,
2460693.500000000, A.D. 2025-Jan-18 00:00:00.0000, 7.795042228810190E+08, 8.917212136465391E+09, -1.311997107125070E+09,
2460700.500000000, A.D. 2025-Jan-25 00:00:00.0000, 7.774066311286607E+08, 8.918250091011801E+09, -1.311657372198243E+09,
2460707.500000000, A.D. 2025-Feb-01 00:00:00.0000, 7.753089716873510E+08, 8.919287367988480E+09, -1.311317550281568E+09,
2460714.500000000, A.D. 2025-Feb-08 00:00:00.0000, 7.732112475859013E+08, 8.920323968086134E+09, -1.310977641494882E+09,
2460721.500000000, A.D. 2025-Feb-15 00:00:00.0000, 7.711134615656987E+08, 8.921359892262205E+09, -1.310637645953372E+09,
$$EOE